#dP2020  3 18  0  0  0.00000000      97 __u+U IGS08 FIT  IAC
## 2097 259200.00000000   900.00000000 58926 0.0000000000000
+  122   C01C02C03C04C05C06C07C08C09C10C11C12C13C14C16C19C20
+        C21C22C23C24C25C26C27C28C29C30C32C33C34C35C36C37C38
+        C39C40C43C44C45C46E01E02E03E04E05E07E08E09E11E12E13
+        E14E15E18E21E24E25E26E27E30E31E33E36G01G02G03G04G05
+        G06G07G08G09G10G11G12G13G14G15G16G17G18G19G20G21G22
+        G23G24G25G26G27G28G29G30G31G32J01J02J03J07R01R02R03
+        R04R05R07R08R09R11R12R13R14R15R16R17R18R19R20R21R22
+        R23R24R26  0  0  0  0  0  0  0  0  0  0  0  0  0  0
++         0  0  0  0  0  0  0  0  0  0  0  0  0  0  0  0  0
++         0  0  0  0  0  0  0  0  0  0  0  0  0  0  0  0  0
++         0  0  0  0  0  0  0  0  0  0  0  0  0  0  0  0  0
++         0  0  0  0  0  0  0  0  0  0  0  0  0  0  0  0  0
++         0  0  0  0  0  0  0  0  0  0  0  0  0  0  0  0  0
++         0  0  0  0  0  0  0  0  0  0  0  0  0  0  0  0  0
++         0  0  0  0  0  0  0  0  0  0  0  0  0  0  0  0  0
++         0  0  0  0  0  0  0  0  0  0  0  0  0  0  0  0  0
%c M  cc GPS ccc cccc cccc cccc cccc ccccc ccccc ccccc ccccc
%c cc cc ccc ccc cccc cccc cccc cccc ccccc ccccc ccccc ccccc
%f  1.2500000  1.025000000  0.00000000000  0.000000000000000
%f  0.0000000  0.000000000  0.00000000000  0.000000000000000
%i    0    0    0    0      0      0      0      0         0
%i    0    0    0    0      0      0      0      0         0
/* INFORMATION & ANALYSIS CENTER (IAC)            FINAL DATA
/* S/V CLOCKS ARE ALIGNED TO GNSS TIME                      
/* G:C1WC2W R:C1PC2P E:C1XC5X C:C2IC6I J:C1CC2S             
/* PCV:IGS14_2091 OL/AL:FES2004  NONE     YN ORB:CoN CLK:CoN
*  2020 03 18  1 15  0.00000000
PC01 -32305.902135  27103.266648   -714.437662    325.728767
PC02   4465.179269  41915.076408   -307.395943    475.917138
PC03 -14654.232749  39543.318720   -867.751041     95.553417
PC04 -39628.747823  14417.603402   -648.882281   -183.061803
PC05  21973.553699  36002.161297    -64.413505   -143.120713
PC06 -21878.201956  24039.857902  26996.381200    240.921538
PC07 -16788.072946  38102.358842   8290.287842    933.414244
PC08  -6695.417801  23218.164677 -34384.014957   -159.957026
PC09  -6421.388495  25104.960962  33446.365751    408.949603
PC10  -6849.841277  41558.144933  -4579.117264   -765.555175
PC11 -13993.131187  12245.684176 -20761.632518   -246.858494
PC12 -26997.062922   1976.546743  -6788.804480    333.702290
PC13   5773.673281  31738.257985 -26911.912023    329.344623
PC14 -15497.866348  23234.604688    658.303655    209.796526
PC16 -17756.458670  24544.042164  29298.632239   -721.346275
PC19   8993.687970 -24650.838152  -9447.736329    355.027737
PC20  19318.883455 -18592.446324   7706.081381   -882.749699
PC21 -18508.609117   1260.813982 -20830.888381   -184.445171
PC22  -6784.325864 -16464.059889 -21470.390907   -868.716255
PC23  13799.848093  23968.895103  -3706.206452   -926.820310
PC24 -12847.911405  10358.046334  22489.135504   -897.277095
PC25   1641.550716  24576.370018  13092.295816   -551.921042
PC26 -18881.878576  -8457.976603  18735.096533    610.448621
PC27  27479.169525   4415.628778  -2224.253496    297.022497
PC28  16328.860798  14037.005312 -17744.032244    287.980435
PC29   3709.836964 -15600.740235  22835.094578    202.364107
PC30  22407.104224  -8462.481102  14342.266077    288.261323
PC32  18516.162596  -1362.686349  20849.662257   -899.837663
PC33  -8890.169025  24728.794941   9427.143015   -906.931980
PC34 -22091.813867   8669.347576 -14661.660487   -556.306703
PC35 -16619.500180 -13580.653979  17816.856806   -934.700486
PC36   -919.519725 -24530.898110 -13251.650696   -821.927493
PC37  18696.940585   9501.057042 -18387.680626   -856.602915
PC38  -5241.198410  26895.734520 -32006.666535     67.302997
PC39 -16774.758842  25635.128905  28934.899512 999999.999999
PC40 -12961.299224  40140.749900  -2675.454366 999999.999999
PC43  -4053.848598  15660.749772 -22737.139144 999999.999999
PC44 -27544.970792  -3645.873305   2366.056847 999999.999999
PC45 -13847.234009 -23963.179980   3660.368720 999999.999999
PC46  12448.273938 -10812.296584 -22514.135113    906.447445
PE01  10842.795371 -22105.575096 -16440.203290   -816.941123
PE02 -10799.869238  22152.131672  16377.340014    120.110849
PE03 -21546.546838  18841.624218   7570.830407   -277.940891
PE04   3961.928122 -19969.819996 -21481.187236   -487.149027
PE05 -26689.259668   6643.074921 -10940.530466   -396.372543
PE07  16204.073099   9358.176885  22940.430628   -355.609522
PE08  -3686.041880  19839.060827  21663.320258   6205.277110
PE09 -16286.089936  -9047.082784 -22999.322751   6122.274042
PE11 -23546.551381 -17103.536147   5340.745218   1786.337128
PE12  -6732.106724 -19656.924786  21080.911779   5899.136399
PE13  23515.911344  17095.306222  -5580.902505    399.306413
PE14 -26383.376975   1228.428057   4496.434410   -944.201135
PE15   7096.776961  19609.294581 -20997.130151    873.628452
PE18  23751.826776   9444.110157 -16213.709277  -1042.303932
PE21  16372.543170  -1958.842372 -24588.613371   -588.506443
PE24 -12268.379216 -19794.706532  18270.514036   5554.908782
PE25 -16375.488175   1809.653291  24591.688193   -506.986800
PE26  26060.313633   4376.148098  13350.520524   3407.289044
PE27  12407.753480  19583.538798 -18399.314807    260.076945
PE30    882.667106  29552.817252  -1229.074559   4058.860854
PE31  -1174.863686 -29545.019557   1432.868148   -472.022644
PE33  13527.299716 -10607.003374  24110.557261   -469.382970
PE36 -26138.279858  -4559.006413 -13100.730761    584.698466
PG01  21233.101200  13402.941637   8947.924230   -329.334348
PG02 -10819.065156 -21302.229555  12317.463035   -423.732894
PG03  14520.782576   4125.659066  21796.804574   -120.704759
PG04  24646.931759   1596.925901   9814.461113    -63.709961
PG05  -3867.505779 -22798.975620 -13020.286225     -9.293699
PG06   -305.799677 -18595.544869  19001.474709   -233.293018
PG07  17156.283970  -2525.291277 -19953.838688   -238.123430
PG08  17493.019980   8250.664540 -18291.256758    -27.455292
PG09  25575.658854  -7198.884029   -375.680989   -178.761511
PG10 -11539.162920  22627.388531  -7256.997627   -280.776970
PG11  22082.215645  13112.031462  -6624.529114   -331.034548
PG12 -12860.125081  -7493.158693  21777.573048    139.530308
PG13  -9327.663549 -13445.827336 -21058.156520     -4.976098
PG14  -6155.107673  15768.059462  20759.849149    -25.624704
PG15 -18965.292932  -7116.617565 -17672.599909   -244.255078
PG16   1638.604082  22345.240067 -14111.381071   -136.215786
PG17  16355.716411 -13987.138496  15956.087503    233.802719
PG18 -19929.186390  -3952.105454 -17132.500558    122.214556
PG19   9104.151671 -14728.015454  19844.913596   -184.363552
PG20 -14631.410898  14488.796363 -16742.454689    527.865858
PG21 -15733.025080   4970.340196 -19968.402383    -26.387802
PG22  12371.712239  13254.689717  19667.158930   -785.454360
PG23  25077.093404    268.618724   9666.456540   -128.952631
PG24 -22045.222473 -13563.394216   6559.303947    -10.491477
PG25 -16029.968386   5575.424373  20122.105723     -8.490463
PG26  -3570.792872  25918.086037  -3841.722263    169.640415
PG27   6401.203782  13651.780441 -22016.274597   -241.450173
PG28  12393.587371 -22913.367904  -4957.587008    732.133215
PG29 -26244.981798   3913.081875   1314.022720    -59.091653
PG30   8854.532629 -13302.970060 -21162.361921   -177.801944
PG31   2004.970069  19948.705155  17144.841068    -30.099906
PG32 -14963.004012  15334.082392  15677.331505    238.690214
PJ01 -25512.742749  33467.120467   1862.427864   -343.138243
PJ02 -25802.452085  24479.165188  27452.623674     -1.903999
PJ03 -33774.168009  17196.671525 -13842.865057     -1.203562
PJ07 -25388.646242  33657.577810     39.094269      0.067174
PR01 -16026.020196  19358.903256   4416.654220     58.691553
PR02   -742.082156  14550.779282  20963.661019    417.241720
PR03  13400.850649   1334.187581  21716.085608     11.718532
PR04  19679.836011 -12634.253439  10216.757273     42.366199
PR05  15002.435981 -19371.216896  -7122.777783     46.952299
PR07 -13695.615132   -877.498143 -21454.853153    -34.459699
PR08 -19714.928993  12605.002519 -10082.934844    -51.106714
PR09  -8830.316662 -23289.121415   5360.144809    122.418017
PR11  -9996.505885   5516.064206  22821.496038    -17.079663
PR12  -2112.157241  20398.630946  15172.318696    114.866539
PR13   7490.448064  24316.403564  -1815.023630    -36.186624
PR14  12281.095279  13889.359168 -17517.631967     49.228327
PR15  10126.365329  -4462.649820 -22968.318138    106.157331
PR16   1536.534106 -20857.738584 -14722.855695     -2.165024
PR17  23251.452437   9035.583258  -5241.761676    309.882197
PR18  22731.886246   1041.166540  11606.998582     28.856617
PR19  10506.939365  -7087.722200  22141.235327    -84.260811
PR20 -10033.144782 -12413.715904  19890.272557   -406.833662
PR21 -23570.846221  -8745.021991   4378.049348   -111.962864
PR22 -21278.877324    333.730085 -13954.035684    -18.268279
PR23  -3600.329396   9822.854982 -23267.106693    293.243074
PR24  12673.723972  12283.621239 -18446.982851    -48.251783
PR26  -5885.891784 -11877.201289  21811.760991   -403.475993
EOF
